SOYUZ-MS 28             
1 66664U 25275A   25354.27981747  .00007139  00000+0  13442-3 0  9999
2 66664  51.6320 105.1395 0003193 275.4219  84.6406 15.49680920  3619
1998-067XS              
1 66906U 98067XS  25354.46222212  .00021596  00000+0  37246-3 0  9994
2 66906  51.6311 104.1082 0003003 237.5000 122.5699 15.50962254  2819
1998-067XT              
1 66907U 98067XT  25353.48808759  .00047666  00000+0  77339-3 0  9995
2 66907  51.6306 108.8528 0003998 265.7173  94.3360 15.52255247  2660
1998-067XU              
1 66908U 98067XU  25354.32421503  .00051005  00000+0  82115-3 0  9998
2 66908  51.6312 104.6877 0003897 270.3762  89.6781 15.52443245  2798
SILVERSAT               
1 66909U 98067XV  25353.55080352  .00049748  00000+0  79912-3 0  9998
2 66909  51.6306 108.5226 0003839 268.6960  91.3590 15.52516520  2671
1998-067XW              
1 66910U 98067XW  25354.45015186  .00044540  00000+0  71418-3 0  9991
2 66910  51.6311 104.0281 0004276 248.7009 111.3524 15.52613612  2816
1998-067XX              
1 66911U 98067XX  25353.80422408  .00052143  00000+0  82359-3 0  9993
2 66911  51.6304 107.2150 0003934 254.2011 105.8545 15.52964022  2707
1998-067XY              
1 66912U 98067XY  25353.61960698  .00038197  00000+0  63264-3 0  9998
2 66912  51.6307 108.2310 0004012 260.8810  99.1725 15.51780846  2678
